{
"type": "FeatureCollection",
"name": "hospitales_y_caps_tucuman",
"crs": { "type": "name", "properties": { "name": "urn:ogc:def:crs:OGC:1.3:CRS84" } },
"features": [
{ "type": "Feature", "properties": { "id": "node/428845265", "@id": "node/428845265", "addr:city": "Famaillá", "addr:full": "Belgrano 210", "addr:housenumber": "210", "addr:place": "Famaillá", "addr:postcode": "4132", "addr:street": "Belgrano", "amenity": "hospital", "description": "Bajo riesgo con internación simple", "emergency": null, "healthcare": "hospital", "name": "Hospital Parajón Ortíz", "nohousenumber": null, "opening_hours": null, "operator:type": "public", "phone": null, "ref:sisa_codigo": "10900282196027", "ref:sisa_tipologia": "ESCIG", "source": "sedronar.gov.ar | Public Domain (PD)", "operator": null, "contact:facebook": null, "contact:instagram": null, "email": null, "healthcare:speciality": null, "internet_access": null, "short_name": null, "website": null, "wikidata": null }, "geometry": { "type": "Point", "coordinates": [ -65.4048573, -27.0526861 ] } },
{ "type": "Feature", "properties": { "id": "node/1153947634", "@id": "node/1153947634", "addr:city": "Aguilares", "addr:full": "Gorriti y Alsina", "addr:housenumber": null, "addr:place": "Río Chico", "addr:postcode": "4152", "addr:street": "Ignacio Gorriti", "amenity": "hospital", "description": "Bajo riesgo con internación simple", "emergency": null, "healthcare": "hospital", "name": "Hospital Centro de Salud de Aguilares", "nohousenumber": "yes", "opening_hours": null, "operator:type": "public", "phone": null, "ref:sisa_codigo": "10900772196012", "ref:sisa_tipologia": "ESCIG", "source": "sedronar.gov.ar | Public Domain (PD)", "operator": null, "contact:facebook": null, "contact:instagram": null, "email": null, "healthcare:speciality": null, "internet_access": null, "short_name": null, "website": null, "wikidata": null }, "geometry": { "type": "Point", "coordinates": [ -65.6217363, -27.4333791 ] } },
{ "type": "Feature", "properties": { "id": "node/3741440405", "@id": "node/3741440405", "addr:city": "La Florida", "addr:full": "Ruta Nacional 9 Km 1225.7", "addr:housenumber": null, "addr:place": null, "addr:postcode": null, "addr:street": "Ruta Nacional 9", "amenity": "hospital", "description": null, "emergency": null, "healthcare": "hospital", "name": "CAPS La Florida", "nohousenumber": null, "opening_hours": null, "operator:type": null, "phone": null, "ref:sisa_codigo": null, "ref:sisa_tipologia": null, "source": null, "operator": null, "contact:facebook": null, "contact:instagram": null, "email": null, "healthcare:speciality": null, "internet_access": null, "short_name": null, "website": null, "wikidata": null }, "geometry": { "type": "Point", "coordinates": [ -64.9636537, -27.3523352 ] } },
{ "type": "Feature", "properties": { "id": "node/3810570620", "@id": "node/3810570620", "addr:city": "ALDERETES", "addr:full": null, "addr:housenumber": null, "addr:place": null, "addr:postcode": "4178", "addr:street": "VIRGEN DEL CALLE", "amenity": "hospital", "description": null, "emergency": null, "healthcare": "hospital", "name": "CAPS SILVESTRE", "nohousenumber": null, "opening_hours": null, "operator:type": null, "phone": null, "ref:sisa_codigo": null, "ref:sisa_tipologia": null, "source": null, "operator": null, "contact:facebook": null, "contact:instagram": null, "email": null, "healthcare:speciality": null, "internet_access": null, "short_name": null, "website": null, "wikidata": null }, "geometry": { "type": "Point", "coordinates": [ -65.1323973, -26.7960046 ] } },
{ "type": "Feature", "properties": { "id": "node/4593415290", "@id": "node/4593415290", "addr:city": "Lules", "addr:full": "Belgrano 300", "addr:housenumber": null, "addr:place": "Lules", "addr:postcode": "4128", "addr:street": null, "amenity": "hospital", "description": "Bajo riesgo con internación simple", "emergency": null, "healthcare": "hospital", "name": "Hospital Eliseo Canton Lules", "nohousenumber": null, "opening_hours": null, "operator:type": "public", "phone": null, "ref:sisa_codigo": "10900632196019", "ref:sisa_tipologia": "ESCIG", "source": "sedronar.gov.ar | Public Domain (PD)", "operator": null, "contact:facebook": null, "contact:instagram": null, "email": null, "healthcare:speciality": null, "internet_access": null, "short_name": null, "website": null, "wikidata": null }, "geometry": { "type": "Point", "coordinates": [ -65.3383233, -26.9294727 ] } },
{ "type": "Feature", "properties": { "id": "node/4894628291", "@id": "node/4894628291", "addr:city": null, "addr:full": null, "addr:housenumber": null, "addr:place": null, "addr:postcode": null, "addr:street": "Isabel La Católica y Padre Roque Correa", "amenity": "hospital", "description": null, "emergency": "no", "healthcare": "hospital", "name": "CAPS Villa Muñecas", "nohousenumber": null, "opening_hours": null, "operator:type": null, "phone": null, "ref:sisa_codigo": null, "ref:sisa_tipologia": null, "source": null, "operator": null, "contact:facebook": null, "contact:instagram": null, "email": null, "healthcare:speciality": null, "internet_access": null, "short_name": null, "website": null, "wikidata": null }, "geometry": { "type": "Point", "coordinates": [ -65.2371296, -26.7907207 ] } },
{ "type": "Feature", "properties": { "id": "node/5288226225", "@id": "node/5288226225", "addr:city": null, "addr:full": null, "addr:housenumber": null, "addr:place": null, "addr:postcode": null, "addr:street": null, "amenity": "hospital", "description": null, "emergency": null, "healthcare": "hospital", "name": "Caps San José", "nohousenumber": null, "opening_hours": "24/7", "operator:type": null, "phone": null, "ref:sisa_codigo": null, "ref:sisa_tipologia": null, "source": null, "operator": null, "contact:facebook": null, "contact:instagram": null, "email": null, "healthcare:speciality": null, "internet_access": null, "short_name": null, "website": null, "wikidata": null }, "geometry": { "type": "Point", "coordinates": [ -65.259193, -26.794944 ] } },
{ "type": "Feature", "properties": { "id": "node/5378655152", "@id": "node/5378655152", "addr:city": "La Cocha", "addr:full": "San Martin Norte Y 25 De Mayo", "addr:housenumber": null, "addr:place": "La Cocha", "addr:postcode": "4162", "addr:street": "San Martin Norte", "amenity": "hospital", "description": "Bajo riesgo con internación simple", "emergency": null, "healthcare": "hospital", "name": "Hospital Mario V. Stivala", "nohousenumber": "yes", "opening_hours": null, "operator:type": "public", "phone": "+54 3865 496544", "ref:sisa_codigo": "10900492196026", "ref:sisa_tipologia": "ESCIG", "source": "sedronar.gov.ar | Public Domain (PD)", "operator": null, "contact:facebook": null, "contact:instagram": null, "email": null, "healthcare:speciality": null, "internet_access": null, "short_name": null, "website": null, "wikidata": null }, "geometry": { "type": "Point", "coordinates": [ -65.5855195, -27.7606287 ] } },
{ "type": "Feature", "properties": { "id": "node/6241826154", "@id": "node/6241826154", "addr:city": null, "addr:full": null, "addr:housenumber": null, "addr:place": null, "addr:postcode": null, "addr:street": null, "amenity": "hospital", "description": null, "emergency": null, "healthcare": "hospital", "name": "Caps Yerba Buena", "nohousenumber": null, "opening_hours": null, "operator:type": null, "phone": null, "ref:sisa_codigo": null, "ref:sisa_tipologia": null, "source": null, "operator": null, "contact:facebook": null, "contact:instagram": null, "email": null, "healthcare:speciality": null, "internet_access": null, "short_name": null, "website": null, "wikidata": null }, "geometry": { "type": "Point", "coordinates": [ -65.2727529, -26.8145084 ] } },
{ "type": "Feature", "properties": { "id": "node/7342856062", "@id": "node/7342856062", "addr:city": "Santa Ana", "addr:full": "San Martín y Pellegrini", "addr:housenumber": null, "addr:place": "Rio Chico", "addr:postcode": "4155", "addr:street": "San Martín", "amenity": "hospital", "description": "Bajo riesgo con internación simple", "emergency": null, "healthcare": "hospital", "name": "Hospital Santa Ana", "nohousenumber": "yes", "opening_hours": null, "operator:type": "public", "phone": null, "ref:sisa_codigo": "10900772196031", "ref:sisa_tipologia": "ESCIG", "source": "sedronar.gov.ar | Public Domain (PD)", "operator": null, "contact:facebook": null, "contact:instagram": null, "email": null, "healthcare:speciality": null, "internet_access": null, "short_name": null, "website": null, "wikidata": null }, "geometry": { "type": "Point", "coordinates": [ -65.6822884, -27.4768469 ] } },
{ "type": "Feature", "properties": { "id": "node/7342957373", "@id": "node/7342957373", "addr:city": "Los Sarmientos", "addr:full": "9 De Julio S/N", "addr:housenumber": null, "addr:place": "Rio Chico", "addr:postcode": "4157", "addr:street": "9 de Julio", "amenity": "hospital", "description": "Bajo riesgo con internación simple", "emergency": null, "healthcare": "hospital", "name": "Hospital Los Sarmientos", "nohousenumber": "yes", "opening_hours": null, "operator:type": "public", "phone": null, "ref:sisa_codigo": "10900772196024", "ref:sisa_tipologia": "ESCIG", "source": "sedronar.gov.ar | Public Domain (PD)", "operator": null, "contact:facebook": null, "contact:instagram": null, "email": null, "healthcare:speciality": null, "internet_access": null, "short_name": null, "website": null, "wikidata": null }, "geometry": { "type": "Point", "coordinates": [ -65.6951791, -27.4133406 ] } },
{ "type": "Feature", "properties": { "id": "node/7346729164", "@id": "node/7346729164", "addr:city": "Lamadrid", "addr:full": "Boulevar Roca S/N", "addr:housenumber": null, "addr:place": "Graneros", "addr:postcode": "4176", "addr:street": "Boulevar Roca", "amenity": "hospital", "description": "Bajo riesgo con internación simple", "emergency": null, "healthcare": "hospital", "name": "Hospital Dr. Ramon H. Maza", "nohousenumber": "yes", "opening_hours": null, "operator:type": "public", "phone": null, "ref:sisa_codigo": "10900352196005", "ref:sisa_tipologia": "ESCIG", "source": "sedronar.gov.ar | Public Domain (PD)", "operator": null, "contact:facebook": null, "contact:instagram": null, "email": null, "healthcare:speciality": null, "internet_access": null, "short_name": null, "website": null, "wikidata": null }, "geometry": { "type": "Point", "coordinates": [ -65.2525988, -27.6429953 ] } },
{ "type": "Feature", "properties": { "id": "node/7346823022", "@id": "node/7346823022", "addr:city": "Juan Bautista Alberdi", "addr:full": "Belgrano 850", "addr:housenumber": "850", "addr:place": "Juan B Alberdi", "addr:postcode": "4158", "addr:street": "Manuel Begrano", "amenity": "hospital", "description": "Bajo riesgo con internación simple", "emergency": null, "healthcare": "hospital", "name": "Hospital Juan B. Alberdi", "nohousenumber": null, "opening_hours": null, "operator:type": "public", "phone": null, "ref:sisa_codigo": "10900422196023", "ref:sisa_tipologia": "ESCIG", "source": "sedronar.gov.ar | Public Domain (PD)", "operator": null, "contact:facebook": null, "contact:instagram": null, "email": null, "healthcare:speciality": null, "internet_access": null, "short_name": null, "website": null, "wikidata": null }, "geometry": { "type": "Point", "coordinates": [ -65.62432, -27.5845673 ] } },
{ "type": "Feature", "properties": { "id": "node/7348711345", "@id": "node/7348711345", "addr:city": "Simoca", "addr:full": "Alvaro Gomez Llueca 800 y Avenida Ricardo Balbin", "addr:housenumber": "800", "addr:place": null, "addr:postcode": "4172", "addr:street": "Gómez Llueca", "amenity": "hospital", "description": "Alto riesgo con terapia intensiva especializada", "emergency": null, "healthcare": "hospital", "name": "Hospital Doctor Álvaro Gómez Llueca", "nohousenumber": null, "opening_hours": null, "operator:type": "public", "phone": null, "ref:sisa_codigo": "10900912196015", "ref:sisa_tipologia": "ESCIG", "source": "sedronar.gov.ar | Public Domain (PD)", "operator": null, "contact:facebook": null, "contact:instagram": null, "email": null, "healthcare:speciality": null, "internet_access": null, "short_name": null, "website": null, "wikidata": null }, "geometry": { "type": "Point", "coordinates": [ -65.3583064, -27.2657718 ] } },
{ "type": "Feature", "properties": { "id": "node/7360418344", "@id": "node/7360418344", "addr:city": "Santa Lucía", "addr:full": "Marcos Avellaneda", "addr:housenumber": "51", "addr:place": "Monteros", "addr:postcode": "4134", "addr:street": "Marco Avellaneda", "amenity": "hospital", "description": "Bajo riesgo con internación simple", "emergency": null, "healthcare": "hospital", "name": "Hospital Santa Lucía", "nohousenumber": null, "opening_hours": null, "operator:type": "public", "phone": null, "ref:sisa_codigo": "10900702196032", "ref:sisa_tipologia": "ESCIG", "source": "sedronar.gov.ar | Public Domain (PD)", "operator": null, "contact:facebook": null, "contact:instagram": null, "email": null, "healthcare:speciality": null, "internet_access": null, "short_name": null, "website": null, "wikidata": null }, "geometry": { "type": "Point", "coordinates": [ -65.5299137, -27.0941509 ] } },
{ "type": "Feature", "properties": { "id": "node/7360511626", "@id": "node/7360511626", "addr:city": "Santa Rosa de Leales", "addr:full": "Ernesto Padilla 300", "addr:housenumber": "300", "addr:place": "Leales", "addr:postcode": "4111", "addr:street": "Padilla", "amenity": "hospital", "description": "Bajo riesgo con internación simple", "emergency": null, "healthcare": "hospital", "name": "Hospital Santa Rosa de Leales", "nohousenumber": null, "opening_hours": null, "operator:type": "public", "phone": null, "ref:sisa_codigo": "10900562196033", "ref:sisa_tipologia": "ESCIG", "source": "sedronar.gov.ar | Public Domain (PD)", "operator": null, "contact:facebook": null, "contact:instagram": null, "email": null, "healthcare:speciality": null, "internet_access": null, "short_name": null, "website": null, "wikidata": null }, "geometry": { "type": "Point", "coordinates": [ -65.2607843, -27.1369893 ] } },
{ "type": "Feature", "properties": { "id": "node/7367770020", "@id": "node/7367770020", "addr:city": "Bella Vista", "addr:full": "San Martín 250", "addr:housenumber": "250", "addr:place": "Leales", "addr:postcode": "4168", "addr:street": "San Martín", "amenity": "hospital", "description": "Bajo riesgo con internación simple", "emergency": null, "healthcare": "hospital", "name": "Hospital Centro De Salud Bella Vista Dr. Guillermo Salazar", "nohousenumber": null, "opening_hours": null, "operator:type": "public", "phone": null, "ref:sisa_codigo": "10900562196010", "ref:sisa_tipologia": "ESCIG", "source": "sedronar.gov.ar | Public Domain (PD)", "operator": null, "contact:facebook": null, "contact:instagram": null, "email": null, "healthcare:speciality": null, "internet_access": null, "short_name": null, "website": null, "wikidata": null }, "geometry": { "type": "Point", "coordinates": [ -65.3079583, -27.0302837 ] } },
{ "type": "Feature", "properties": { "id": "node/7367848155", "@id": "node/7367848155", "addr:city": "El Bracho", "addr:full": "Calle Principal Sn Entre ( Entre Alberdi Y Avel )", "addr:housenumber": null, "addr:place": "Cruz Alta", "addr:postcode": "4111", "addr:street": "Calle Principal", "amenity": "hospital", "description": "Bajo riesgo con internación simple", "emergency": null, "healthcare": "hospital", "name": "Hospital El Bracho", "nohousenumber": "yes", "opening_hours": null, "operator:type": "public", "phone": null, "ref:sisa_codigo": "10900142196017", "ref:sisa_tipologia": "ESCIG", "source": "sedronar.gov.ar | Public Domain (PD)", "operator": null, "contact:facebook": null, "contact:instagram": null, "email": null, "healthcare:speciality": null, "internet_access": null, "short_name": null, "website": null, "wikidata": null }, "geometry": { "type": "Point", "coordinates": [ -65.1826561, -26.9935456 ] } },
{ "type": "Feature", "properties": { "id": "node/7404049739", "@id": "node/7404049739", "addr:city": "El Timbo Viejo", "addr:full": "Ruta 305 Km 18 - El Timbo Viejo", "addr:housenumber": null, "addr:place": "Burruyacu", "addr:postcode": "4101", "addr:street": null, "amenity": "hospital", "description": "Bajo riesgo con internación simple", "emergency": null, "healthcare": "hospital", "name": "Hospital El Timbo", "nohousenumber": null, "opening_hours": null, "operator:type": "public", "phone": null, "ref:sisa_codigo": "10900072196018", "ref:sisa_tipologia": "ESCIG", "source": "sedronar.gov.ar | Public Domain (PD)", "operator": null, "contact:facebook": null, "contact:instagram": null, "email": null, "healthcare:speciality": null, "internet_access": null, "short_name": null, "website": null, "wikidata": null }, "geometry": { "type": "Point", "coordinates": [ -65.1361196, -26.6792584 ] } }
]
}
